start=new Date('2023-03-24T00:00:00.000Z').valueOf();
sats=[{"CLASSIFICATION_TYPE":"U","MEAN_MOTION":"15.06393296","TIME_SYSTEM":"UTC","PERIOD":"95.593","BSTAR":"0.00050932000000","OBJECT_NAME":"STARLINK-1327","DECAY_DATE":null,"CENTER_NAME":"EARTH","EPHEMERIS_TYPE":"0","MEAN_MOTION_DOT":"0.00007312","RCS_SIZE":"LARGE","TLE_LINE1":"1 45555U 20025AA  23082.81726549  .00007312  00000-0  50932-3 0  9995","SEMIMAJOR_AXIS":"6925.369","REV_AT_EPOCH":"16170","MEAN_MOTION_DDOT":"0.0000000000000","INCLINATION":"53.0523","SITE":"AFETR","APOAPSIS":"547.975","FILE":"3868522","OBJECT_ID":"2020-025AA","RA_OF_ASC_NODE":"263.3276","NORAD_CAT_ID":"45555","LAUNCH_DATE":"2020-04-22","PERIAPSIS":"546.493","GP_ID":"228710347","ELEMENT_SET_NO":"999","ARG_OF_PERICENTER":"68.9151","ECCENTRICITY":"0.00010700","OBJECT_TYPE":"PAYLOAD","TLE_LINE2":"2 45555  53.0523 263.3276 0001070  68.9151 291.1952 15.06393296161709","MEAN_ANOMALY":"291.1952","MEAN_ELEMENT_THEORY":"SGP4","COUNTRY_CODE":"US","EPOCH":"2023-03-23T19:36:51.738336","REF_FRAME":"TEME"},{"TIME_SYSTEM":"UTC","PERIOD":"95.594","BSTAR":"0.00042614000000","OBJECT_NAME":"STARLINK-1334","DECAY_DATE":null,"CLASSIFICATION_TYPE":"U","MEAN_MOTION":"15.06372728","TLE_LINE1":"1 45556U 20025AB  23082.79148368  .00006067  00000-0  42614-3 0  9994","SEMIMAJOR_AXIS":"6925.432","REV_AT_EPOCH":"16230","CENTER_NAME":"EARTH","EPHEMERIS_TYPE":"0","MEAN_MOTION_DOT":"0.00006067","RCS_SIZE":"LARGE","LAUNCH_DATE":"2020-04-22","PERIAPSIS":"546.412","GP_ID":"228735947","ELEMENT_SET_NO":"999","ARG_OF_PERICENTER":"89.8877","MEAN_MOTION_DDOT":"0.0000000000000","INCLINATION":"53.0533","SITE":"AFETR","APOAPSIS":"548.182","FILE":"3868816","OBJECT_ID":"2020-025AB","NORAD_CAT_ID":"45556","RA_OF_ASC_NODE":"263.4461","MEAN_ANOMALY":"270.2259","MEAN_ELEMENT_THEORY":"SGP4","COUNTRY_CODE":"US","EPOCH":"2023-03-23T18:59:44.189952","REF_FRAME":"TEME","ECCENTRICITY":"0.00012780","OBJECT_TYPE":"PAYLOAD","TLE_LINE2":"2 45556  53.0533 263.4461 0001278  89.8877 270.2259 15.06372728162307"},{"TLE_LINE2":"2 45557  53.0537 263.4126 0001066  66.1428 293.9672 15.06402548161703","OBJECT_TYPE":"PAYLOAD","ECCENTRICITY":"0.00010660","REF_FRAME":"TEME","EPOCH":"2023-03-23T19:10:19.981632","MEAN_ELEMENT_THEORY":"SGP4","MEAN_ANOMALY":"293.9672","COUNTRY_CODE":"US","RA_OF_ASC_NODE":"263.4126","NORAD_CAT_ID":"45557","INCLINATION":"53.0537","MEAN_MOTION_DDOT":"0.0000000000000","FILE":"3868589","APOAPSIS":"547.944","OBJECT_ID":"2020-025AC","SITE":"AFETR","GP_ID":"228712260","PERIAPSIS":"546.468","ARG_OF_PERICENTER":"66.1428","ELEMENT_SET_NO":"999","LAUNCH_DATE":"2020-04-22","MEAN_MOTION_DOT":"0.00007672","EPHEMERIS_TYPE":"0","RCS_SIZE":"LARGE","CENTER_NAME":"EARTH","REV_AT_EPOCH":"16170","SEMIMAJOR_AXIS":"6925.341","TLE_LINE1":"1 45557U 20025AC  23082.79884238  .00007672  00000-0  53336-3 0  9994","MEAN_MOTION":"15.06402548","CLASSIFICATION_TYPE":"U","DECAY_DATE":null,"BSTAR":"0.00053336000000","OBJECT_NAME":"STARLINK-1336","TIME_SYSTEM":"UTC","PERIOD":"95.592"},{"TLE_LINE1":"1 45558U 20025AD  23082.76566617  .00001890  00000-0  14575-3 0  9998","SEMIMAJOR_AXIS":"6925.381","REV_AT_EPOCH":"16229","CENTER_NAME":"EARTH","MEAN_MOTION_DOT":"0.00001890","EPHEMERIS_TYPE":"0","RCS_SIZE":"LARGE","TIME_SYSTEM":"UTC","PERIOD":"95.593","DECAY_DATE":null,"OBJECT_NAME":"STARLINK-1342","BSTAR":"0.00014575000000","CLASSIFICATION_TYPE":"U","MEAN_MOTION":"15.06389293","MEAN_ELEMENT_THEORY":"SGP4","MEAN_ANOMALY":"297.3235","COUNTRY_CODE":"US","REF_FRAME":"TEME","EPOCH":"2023-03-23T18:22:33.557088","ECCENTRICITY":"0.00011640","TLE_LINE2":"2 45558  53.0520 263.5589 0001164  62.7872 297.3235 15.06389293162293","OBJECT_TYPE":"PAYLOAD","LAUNCH_DATE":"2020-04-22","GP_ID":"228736948","PERIAPSIS":"546.440","ARG_OF_PERICENTER":"62.7872","ELEMENT_SET_NO":"999","INCLINATION":"53.0520","MEAN_MOTION_DDOT":"0.0000000000000","OBJECT_ID":"2020-025AD","FILE":"3868816","APOAPSIS":"548.052","SITE":"AFETR","RA_OF_ASC_NODE":"263.5589","NORAD_CAT_ID":"45558"},{"MEAN_MOTION":"15.06400169","CLASSIFICATION_TYPE":"U","OBJECT_NAME":"STARLINK-1344","BSTAR":"-0.00008217400000","DECAY_DATE":null,"TIME_SYSTEM":"UTC","PERIOD":"95.592","MEAN_MOTION_DOT":"-0.00001505","EPHEMERIS_TYPE":"0","RCS_SIZE":"LARGE","CENTER_NAME":"EARTH","REV_AT_EPOCH":"16230","SEMIMAJOR_AXIS":"6925.348","TLE_LINE1":"1 45559U 20025AE  23082.79788443 -.00001505  00000-0 -82174-4 0  9991","RA_OF_ASC_NODE":"263.3723","NORAD_CAT_ID":"45559","MEAN_MOTION_DDOT":"0.0000000000000","INCLINATION":"53.0547","SITE":"AFETR","APOAPSIS":"548.092","FILE":"3868816","OBJECT_ID":"2020-025AE","PERIAPSIS":"546.334","GP_ID":"228737177","ELEMENT_SET_NO":"999","ARG_OF_PERICENTER":"119.8060","LAUNCH_DATE":"2020-04-22","OBJECT_TYPE":"PAYLOAD","TLE_LINE2":"2 45559  53.0547 263.3723 0001269 119.8060 240.3055 15.06400169162306","ECCENTRICITY":"0.00012690","EPOCH":"2023-03-23T19:08:57.214752","REF_FRAME":"TEME","MEAN_ANOMALY":"240.3055","MEAN_ELEMENT_THEORY":"SGP4","COUNTRY_CODE":"US"},{"PERIOD":"95.592","TIME_SYSTEM":"UTC","BSTAR":"0.00003215500000","OBJECT_NAME":"STARLINK-1346","DECAY_DATE":null,"CLASSIFICATION_TYPE":"U","MEAN_MOTION":"15.06399135","TLE_LINE1":"1 45560U 20025AF  23082.78775972  .00000198  00000-0  32155-4 0  9994","SEMIMAJOR_AXIS":"6925.351","REV_AT_EPOCH":"16244","CENTER_NAME":"EARTH","RCS_SIZE":"LARGE","EPHEMERIS_TYPE":"0","MEAN_MOTION_DOT":"0.00000198","LAUNCH_DATE":"2020-04-22","ELEMENT_SET_NO":"999","ARG_OF_PERICENTER":"79.7369","PERIAPSIS":"546.252","GP_ID":"228735449","SITE":"AFETR","OBJECT_ID":"2020-025AF","FILE":"3868816","APOAPSIS":"548.180","MEAN_MOTION_DDOT":"0.0000000000000","INCLINATION":"53.0543","NORAD_CAT_ID":"45560","RA_OF_ASC_NODE":"253.4543","COUNTRY_CODE":"US","MEAN_ELEMENT_THEORY":"SGP4","MEAN_ANOMALY":"280.3777","EPOCH":"2023-03-23T18:54:22.439808","REF_FRAME":"TEME","ECCENTRICITY":"0.00013920","OBJECT_TYPE":"PAYLOAD","TLE_LINE2":"2 45560  53.0543 253.4543 0001392  79.7369 280.3777 15.06399135162447"},{"REF_FRAME":"TEME","EPOCH":"2023-03-23T20:33:46.932480","MEAN_ANOMALY":"359.4665","MEAN_ELEMENT_THEORY":"SGP4","COUNTRY_CODE":"US","TLE_LINE2":"2 45561  53.0570 142.1308 0010681   0.6351 359.4665 15.40851088164024","OBJECT_TYPE":"PAYLOAD","ECCENTRICITY":"0.00106810","GP_ID":"228735698","PERIAPSIS":"436.312","ARG_OF_PERICENTER":"0.6351","ELEMENT_SET_NO":"999","LAUNCH_DATE":"2020-04-22","RA_OF_ASC_NODE":"142.1308","NORAD_CAT_ID":"45561","INCLINATION":"53.0570","MEAN_MOTION_DDOT":"0.0000000000000","OBJECT_ID":"2020-025AG","FILE":"3868816","APOAPSIS":"450.884","SITE":"AFETR","REV_AT_EPOCH":"16402","TLE_LINE1":"1 45561U 20025AG  23082.85679320  .00136653  00000-0  32261-2 0  9995","SEMIMAJOR_AXIS":"6821.733","EPHEMERIS_TYPE":"0","MEAN_MOTION_DOT":"0.00136653","RCS_SIZE":"LARGE","CENTER_NAME":"EARTH","DECAY_DATE":null,"BSTAR":"0.00322610000000","OBJECT_NAME":"STARLINK-1348","TIME_SYSTEM":"UTC","PERIOD":"93.455","MEAN_MOTION":"15.40851088","CLASSIFICATION_TYPE":"U"},{"GP_ID":"228710396","PERIAPSIS":"546.348","ARG_OF_PERICENTER":"84.7292","ELEMENT_SET_NO":"999","LAUNCH_DATE":"2020-04-22","NORAD_CAT_ID":"45562","RA_OF_ASC_NODE":"263.3635","INCLINATION":"53.0531","MEAN_MOTION_DDOT":"0.0000000000000","FILE":"3868531","OBJECT_ID":"2020-025AH","APOAPSIS":"548.077","SITE":"AFETR","REF_FRAME":"TEME","EPOCH":"2023-03-23T19:26:15.516384","MEAN_ELEMENT_THEORY":"SGP4","MEAN_ANOMALY":"275.3839","COUNTRY_CODE":"US","TLE_LINE2":"2 45562  53.0531 263.3635 0001248  84.7292 275.3839 15.06400360161703","OBJECT_TYPE":"PAYLOAD","ECCENTRICITY":"0.00012480","DECAY_DATE":null,"OBJECT_NAME":"STARLINK-1354","BSTAR":"0.00045367000000","TIME_SYSTEM":"UTC","PERIOD":"95.592","MEAN_MOTION":"15.06400360","CLASSIFICATION_TYPE":"U","REV_AT_EPOCH":"16170","TLE_LINE1":"1 45562U 20025AH  23082.80990181  .00006482  00000-0  45367-3 0  9990","SEMIMAJOR_AXIS":"6925.347","MEAN_MOTION_DOT":"0.00006482","EPHEMERIS_TYPE":"0","RCS_SIZE":"LARGE","CENTER_NAME":"EARTH"},{"TLE_LINE1":"1 45563U 20025AJ  23082.75829457  .00001567  00000-0  12409-3 0  9992","SEMIMAJOR_AXIS":"6925.373","REV_AT_EPOCH":"16169","CENTER_NAME":"EARTH","RCS_SIZE":"LARGE","EPHEMERIS_TYPE":"0","MEAN_MOTION_DOT":"0.00001567","PERIOD":"95.593","TIME_SYSTEM":"UTC","DECAY_DATE":null,"OBJECT_NAME":"STARLINK-1355","BSTAR":"0.00012409000000","CLASSIFICATION_TYPE":"U","MEAN_MOTION":"15.06392075","COUNTRY_CODE":"US","MEAN_ELEMENT_THEORY":"SGP4","MEAN_ANOMALY":"263.1948","REF_FRAME":"TEME","EPOCH":"2023-03-23T18:11:56.650848","ECCENTRICITY":"0.00010790","TLE_LINE2":"2 45563  53.0525 263.5967 0001079  96.9163 263.1948 15.06392075161698","OBJECT_TYPE":"PAYLOAD","LAUNCH_DATE":"2020-04-22","ARG_OF_PERICENTER":"96.9163","ELEMENT_SET_NO":"999","GP_ID":"228710900","PERIAPSIS":"546.491","FILE":"3868531","OBJECT_ID":"2020-025AJ","APOAPSIS":"547.985","SITE":"AFETR","INCLINATION":"53.0525","MEAN_MOTION_DDOT":"0.0000000000000","RA_OF_ASC_NODE":"263.5967","NORAD_CAT_ID":"45563"},{"RA_OF_ASC_NODE":"263.3108","NORAD_CAT_ID":"45564","APOAPSIS":"547.805","FILE":"3868816","OBJECT_ID":"2020-025AK","SITE":"AFETR","INCLINATION":"53.0520","MEAN_MOTION_DDOT":"0.0000000000000","ARG_OF_PERICENTER":"87.8495","ELEMENT_SET_NO":"999","GP_ID":"228735948","PERIAPSIS":"546.608","LAUNCH_DATE":"2020-04-22","TLE_LINE2":"2 45564  53.0520 263.3108 0000864  87.8495 272.2593 15.06402286162309","OBJECT_TYPE":"PAYLOAD","ECCENTRICITY":"0.00008640","REF_FRAME":"TEME","EPOCH":"2023-03-23T19:42:10.545696","COUNTRY_CODE":"US","MEAN_ELEMENT_THEORY":"SGP4","MEAN_ANOMALY":"272.2593","MEAN_MOTION":"15.06402286","CLASSIFICATION_TYPE":"U","DECAY_DATE":null,"OBJECT_NAME":"STARLINK-1356","BSTAR":"0.00068318000000","PERIOD":"95.592","TIME_SYSTEM":"UTC","RCS_SIZE":"LARGE","MEAN_MOTION_DOT":"0.00009910","EPHEMERIS_TYPE":"0","CENTER_NAME":"EARTH","REV_AT_EPOCH":"16230","SEMIMAJOR_AXIS":"6925.342","TLE_LINE1":"1 45564U 20025AK  23082.82095539  .00009910  00000-0  68318-3 0  9997"}];
